{"type":"FeatureCollection","features":[{"type":"Feature","properties":{"School Sites":"Brandeis Elem","Address":"2817 W. Kentucky Street","Zip":"40211","Meal Service Time":"10:00am - 1:00pm","Mobile Sites":"Holiday Park","Address2":"8219 Minors Lane","Zip2":"40219","Meal Service Time2":"10:00am - 10:30am"},"geometry":null},{"type":"Feature","properties":{"School Sites":"Breck-Frank Elem","Address":"1351 Payne Street","Zip":"40206","Meal Service Time":"10:00am - 1:00pm","Mobile Sites":"Barrington Pointe","Address2":"1321 Glengarry Drive","Zip2":"40118","Meal Service Time2":"11:00am - 11:30am"},"geometry":null},{"type":"Feature","properties":{"School Sites":"Camp Taylor Elem","Address":"1446 Belmar Drive","Zip":"40213","Meal Service Time":"10:00am - 1:00pm","Mobile Sites":"Shivley Apartments","Address2":"3105 Clinton Place","Zip2":"40216","Meal Service Time2":"12:00pm - 12:30pm"},"geometry":null},{"type":"Feature","properties":{"School Sites":"Carter Elem","Address":"3600 Bohne Ave","Zip":"40211","Meal Service Time":"10:00am - 1:00pm","Mobile Sites":"Watterson Lakeview Apartments","Address2":"3703 W Wheatmore Dr","Zip2":"40215","Meal Service Time2":"1:00pm - 1:30pm"},"geometry":null},{"type":"Feature","properties":{"School Sites":"Chancey Elem","Address":"4301 Murphy Lane","Zip":"40241","Meal Service Time":"10:00am - 1:00pm","Mobile Sites":"Derby Estates","Address2":"5319 Rangeland Road","Zip2":"40219","Meal Service Time2":"10:00am - 10:30am"},"geometry":null},{"type":"Feature","properties":{"School Sites":"Conway Elem","Address":"6300 Terry Road","Zip":"40258","Meal Service Time":"10:00am - 1:00pm","Mobile Sites":"Petersburg Park","Address2":"5008 East Indian Trail","Zip2":"40218","Meal Service Time2":"11:00am - 11:30am"},"geometry":null},{"type":"Feature","properties":{"School Sites":"Coral Ridge Elem","Address":"10608 National Turnpike","Zip":"40118","Meal Service Time":"10:00am - 1:00pm","Mobile Sites":"Carpenter Arms Apartments","Address2":"3524 Georgetown Cir","Zip2":"40215","Meal Service Time2":"12:00pm - 12:30pm"},"geometry":null},{"type":"Feature","properties":{"School Sites":"Crums Lane Elem","Address":"3212 S. Crums Lane","Zip":"40216","Meal Service Time":"10:00am - 1:00pm","Mobile Sites":"Partridge Pointe Apartments","Address2":"3701 Dena Street","Zip2":"40215","Meal Service Time2":"1:00pm - 1:30pm"},"geometry":null},{"type":"Feature","properties":{"School Sites":"Doss High","Address":"7601 St. Andrews Church Rd","Zip":"40214","Meal Service Time":"10:00am - 1:00pm","Mobile Sites":"","Address2":"","Zip2":"","Meal Service Time2":""},"geometry":null},{"type":"Feature","properties":{"School Sites":"Engelhard Elem","Address":"1004 S. 1st Street","Zip":"40203","Meal Service Time":"10:00am - 1:00pm","Mobile Sites":"","Address2":"","Zip2":"","Meal Service Time2":""},"geometry":null},{"type":"Feature","properties":{"School Sites":"Fairdale High","Address":"1001 Fairdale Road","Zip":"40118","Meal Service Time":"10:00am - 1:00pm","Mobile Sites":"","Address2":"","Zip2":"","Meal Service Time2":""},"geometry":null},{"type":"Feature","properties":{"School Sites":"Fern Creek Elem","Address":"8815 Ferndale Road","Zip":"40291","Meal Service Time":"10:00am - 1:00pm","Mobile Sites":"","Address2":"","Zip2":"","Meal Service Time2":""},"geometry":null},{"type":"Feature","properties":{"School Sites":"Frayser Elem","Address":"1230 Larchmont Ave","Zip":"40215","Meal Service Time":"10:00am - 1:00pm","Mobile Sites":"","Address2":"","Zip2":"","Meal Service Time2":""},"geometry":null},{"type":"Feature","properties":{"School Sites":"Greenwood Elem","Address":"5801 Greenwood Road","Zip":"40258","Meal Service Time":"10:00am - 1:00pm","Mobile Sites":"","Address2":"","Zip2":"","Meal Service Time2":""},"geometry":null},{"type":"Feature","properties":{"School Sites":"Hazelwood Elem","Address":"1325 Bluegrass Ave","Zip":"40215","Meal Service Time":"10:00am - 1:00pm","Mobile Sites":"","Address2":"","Zip2":"","Meal Service Time2":""},"geometry":null},{"type":"Feature","properties":{"School Sites":"Indian Trail Elem","Address":"3709 E. Indian Trail","Zip":"40213","Meal Service Time":"10:00am - 1:00pm","Mobile Sites":"","Address2":"","Zip2":"","Meal Service Time2":""},"geometry":null},{"type":"Feature","properties":{"School Sites":"Jacob Elem","Address":"3701 E. Wheatmore Drive","Zip":"40215","Meal Service Time":"10:00am - 1:00pm","Mobile Sites":"","Address2":"","Zip2":"","Meal Service Time2":""},"geometry":null},{"type":"Feature","properties":{"School Sites":"Jtown Elem","Address":"3610 Cedarwood Way","Zip":"40299","Meal Service Time":"10:00am - 1:00pm","Mobile Sites":"","Address2":"","Zip2":"","Meal Service Time2":""},"geometry":null},{"type":"Feature","properties":{"School Sites":"Layne Elem","Address":"9831 East Ave","Zip":"40272","Meal Service Time":"10:00am - 1:00pm","Mobile Sites":"","Address2":"","Zip2":"","Meal Service Time2":""},"geometry":null},{"type":"Feature","properties":{"School Sites":"Luhr Elem","Address":"6900 Fegenbush Lane","Zip":"40228","Meal Service Time":"10:00am - 1:00pm","Mobile Sites":"","Address2":"","Zip2":"","Meal Service Time2":""},"geometry":null},{"type":"Feature","properties":{"School Sites":"Maupin Elem","Address":"1312 Catalpa Street","Zip":"40211","Meal Service Time":"10:00am - 1:00pm","Mobile Sites":"","Address2":"","Zip2":"","Meal Service Time2":""},"geometry":null},{"type":"Feature","properties":{"School Sites":"McFerran Elem","Address":"1900 S. 7th Street","Zip":"40208","Meal Service Time":"10:00am - 1:00pm","Mobile Sites":"","Address2":"","Zip2":"","Meal Service Time2":""},"geometry":null},{"type":"Feature","properties":{"School Sites":"Middletown Elem","Address":"218 N. Madison Ave","Zip":"40243","Meal Service Time":"10:00am - 1:00pm","Mobile Sites":"","Address2":"","Zip2":"","Meal Service Time2":""},"geometry":null},{"type":"Feature","properties":{"School Sites":"Portland Elem","Address":"3410 Northwestern Parkway","Zip":"40212","Meal Service Time":"10:00am - 1:00pm","Mobile Sites":"","Address2":"","Zip2":"","Meal Service Time2":""},"geometry":null},{"type":"Feature","properties":{"School Sites":"Rangeland Elem","Address":"1701 Rangeland Road","Zip":"40219","Meal Service Time":"10:00am - 1:00pm","Mobile Sites":"","Address2":"","Zip2":"","Meal Service Time2":""},"geometry":null},{"type":"Feature","properties":{"School Sites":"Roosevelt Perry Elem","Address":"1615 W. Broadway","Zip":"40203","Meal Service Time":"10:00am - 1:00pm","Mobile Sites":"","Address2":"","Zip2":"","Meal Service Time2":""},"geometry":null},{"type":"Feature","properties":{"School Sites":"Seneca High","Address":"3510 Goldsmith Lane","Zip":"40220","Meal Service Time":"10:00am - 1:00pm","Mobile Sites":"","Address2":"","Zip2":"","Meal Service Time2":""},"geometry":null},{"type":"Feature","properties":{"School Sites":"Shawnee High","Address":"4001 Herman Street","Zip":"40212","Meal Service Time":"10:00am - 1:00pm","Mobile Sites":"","Address2":"","Zip2":"","Meal Service Time2":""},"geometry":null},{"type":"Feature","properties":{"School Sites":"Shelby Elem","Address":"735 Ziegler Street","Zip":"40217","Meal Service Time":"10:00am - 1:00pm","Mobile Sites":"","Address2":"","Zip2":"","Meal Service Time2":""},"geometry":null},{"type":"Feature","properties":{"School Sites":"Southern High","Address":"8620 Preston Highway","Zip":"40219","Meal Service Time":"10:00am - 1:00pm","Mobile Sites":"","Address2":"","Zip2":"","Meal Service Time2":""},"geometry":null},{"type":"Feature","properties":{"School Sites":"St. Matthews Elem","Address":"601 Browns Lane","Zip":"40207","Meal Service Time":"10:00am - 1:00pm","Mobile Sites":"","Address2":"","Zip2":"","Meal Service Time2":""},"geometry":null},{"type":"Feature","properties":{"School Sites":"Valley High","Address":"10200 Dixie Highway","Zip":"40272","Meal Service Time":"10:00am - 1:00pm","Mobile Sites":"","Address2":"","Zip2":"","Meal Service Time2":""},"geometry":null},{"type":"Feature","properties":{"School Sites":"Watson Lane Elem","Address":"7201 Watson Lane","Zip":"40272","Meal Service Time":"10:00am - 1:00pm","Mobile Sites":"","Address2":"","Zip2":"","Meal Service Time2":""},"geometry":null},{"type":"Feature","properties":{"School Sites":"Watterson Elem","Address":"3900 Breckenridge Lane","Zip":"40218","Meal Service Time":"10:00am - 1:00pm","Mobile Sites":"","Address2":"","Zip2":"","Meal Service Time2":""},"geometry":null},{"type":"Feature","properties":{"School Sites":"Western Middle","Address":"2201 W. Main Street","Zip":"40212","Meal Service Time":"10:00am - 1:00pm","Mobile Sites":"","Address2":"","Zip2":"","Meal Service Time2":""},"geometry":null},{"type":"Feature","properties":{"School Sites":"Westport Middle","Address":"8100 Westport Road","Zip":"40242","Meal Service Time":"10:00am - 1:00pm","Mobile Sites":"","Address2":"","Zip2":"","Meal Service Time2":""},"geometry":null}]}
